{
  "type": "FeatureCollection",
  "features": [
    {
      "type": "Feature",
      "properties": {
        "norad_id": 28051,
        "name": "IRS-P6 (RESOURCESAT-1)",
        "group": "resource",
        "lat": 2.374424560247212,
        "lon": 40.8537994267173,
        "alt_km": 806.3891478401683,
        "timestamp": "2025-12-27T11:23:19.533830+00:00",
        "meta_object_name": "IRS-P6 (RESOURCESAT-1)",
        "meta_object_id": "2003-046A",
        "meta_epoch": "2025-12-27T05:06:06.415200",
        "meta_mean_motion": 14.36080514,
        "meta_eccentricity": 0.0065022,
        "meta_inclination": 98.2159,
        "meta_ra_of_asc_node": 40.9473,
        "meta_arg_of_pericenter": 137.5257,
        "meta_mean_anomaly": 312.0217,
        "meta_ephemeris_type": 0,
        "meta_classification_type": "U",
        "meta_norad_cat_id": 28051,
        "meta_element_set_no": 999,
        "meta_rev_at_epoch": 15584,
        "meta_bstar": 2.0959e-05,
        "meta_mean_motion_dot": 2.2e-07,
        "meta_mean_motion_ddot": 0,
        "tle_line1": "1 28051U 03046A   25361.21257425  .00000022  00000+0  20959-4 0  9996",
        "tle_line2": "2 28051  98.2159  40.9473 0065022 137.5257 312.0217 14.36080514155845"
      },
      "geometry": {
        "type": "Point",
        "coordinates": [
          40.8537994267173,
          2.374424560247212
        ]
      }
    },
    {
      "type": "Feature",
      "properties": {
        "norad_id": 28220,
        "name": "SHIYAN-1 (SY-1)",
        "group": "resource",
        "lat": 79.40515431882352,
        "lon": 16.021547473150754,
        "alt_km": 476.3675139752504,
        "timestamp": "2025-12-27T11:23:19.533840+00:00",
        "meta_object_name": "SHIYAN-1 (SY-1)",
        "meta_object_id": "2004-012A",
        "meta_epoch": "2025-12-27T03:10:17.239872",
        "meta_mean_motion": 15.28524905,
        "meta_eccentricity": 0.0005166,
        "meta_inclination": 97.8914,
        "meta_ra_of_asc_node": 63.5214,
        "meta_arg_of_pericenter": 264.7953,
        "meta_mean_anomaly": 95.2696,
        "meta_ephemeris_type": 0,
        "meta_classification_type": "U",
        "meta_norad_cat_id": 28220,
        "meta_element_set_no": 999,
        "meta_rev_at_epoch": 18476,
        "meta_bstar": 0.00061686,
        "meta_mean_motion_dot": 0.00017068,
        "meta_mean_motion_ddot": 0,
        "tle_line1": "1 28220U 04012A   25361.13214398  .00017068  00000+0  61686-3 0  9990",
        "tle_line2": "2 28220  97.8914  63.5214 0005166 264.7953  95.2696 15.28524905184763"
      },
      "geometry": {
        "type": "Point",
        "coordinates": [
          16.021547473150754,
          79.40515431882352
        ]
      }
    },
    {
      "type": "Feature",
      "properties": {
        "norad_id": 28376,
        "name": "AURA",
        "group": "resource",
        "lat": 31.232187210887147,
        "lon": 136.86269532291155,
        "alt_km": 687.7465217003091,
        "timestamp": "2025-12-27T11:23:19.533851+00:00",
        "meta_object_name": "AURA",
        "meta_object_id": "2004-026A",
        "meta_epoch": "2025-12-27T04:08:15.046368",
        "meta_mean_motion": 14.60980349,
        "meta_eccentricity": 0.0001456,
        "meta_inclination": 98.3205,
        "meta_ra_of_asc_node": 311.4678,
        "meta_arg_of_pericenter": 90.1431,
        "meta_mean_anomaly": 269.9936,
        "meta_ephemeris_type": 0,
        "meta_classification_type": "U",
        "meta_norad_cat_id": 28376,
        "meta_element_set_no": 999,
        "meta_rev_at_epoch": 14109,
        "meta_bstar": 0.00027585,
        "meta_mean_motion_dot": 1.304e-05,
        "meta_mean_motion_ddot": 0,
        "tle_line1": "1 28376U 04026A   25361.17239637  .00001304  00000+0  27585-3 0  9990",
        "tle_line2": "2 28376  98.3205 311.4678 0001456  90.1431 269.9936 14.60980349141092"
      },
      "geometry": {
        "type": "Point",
        "coordinates": [
          136.86269532291155,
          31.232187210887147
        ]
      }
    },
    {
      "type": "Feature",
      "properties": {
        "norad_id": 28649,
        "name": "IRS-P5 (CARTOSAT-1)",
        "group": "resource",
        "lat": 58.006423942317994,
        "lon": -140.51168191612297,
        "alt_km": 590.7184274583406,
        "timestamp": "2025-12-27T11:23:19.533862+00:00",
        "meta_object_name": "IRS-P5 (CARTOSAT-1)",
        "meta_object_id": "2005-017A",
        "meta_epoch": "2025-12-27T01:10:47.095680",
        "meta_mean_motion": 14.90453087,
        "meta_eccentricity": 4.68e-05,
        "meta_inclination": 97.5482,
        "meta_ra_of_asc_node": 26.8273,
        "meta_arg_of_pericenter": 77.8552,
        "meta_mean_anomaly": 282.2719,
        "meta_ephemeris_type": 0,
        "meta_classification_type": "U",
        "meta_norad_cat_id": 28649,
        "meta_element_set_no": 999,
        "meta_rev_at_epoch": 11817,
        "meta_bstar": 0.00019184,
        "meta_mean_motion_dot": 1.818e-05,
        "meta_mean_motion_ddot": 0,
        "tle_line1": "1 28649U 05017A   25361.04915620  .00001818  00000+0  19184-3 0  9999",
        "tle_line2": "2 28649  97.5482  26.8273 0000468  77.8552 282.2719 14.90453087118176"
      },
      "geometry": {
        "type": "Point",
        "coordinates": [
          -140.51168191612297,
          58.006423942317994
        ]
      }
    },
    {
      "type": "Feature",
      "properties": {
        "norad_id": 28893,
        "name": "SINAH 1",
        "group": "resource",
        "lat": 25.60321450934005,
        "lon": -45.93598851943586,
        "alt_km": 673.9636958864912,
        "timestamp": "2025-12-27T11:23:19.533873+00:00",
        "meta_object_name": "SINAH 1",
        "meta_object_id": "2005-043D",
        "meta_epoch": "2025-12-27T04:07:39.848736",
        "meta_mean_motion": 14.63977883,
        "meta_eccentricity": 0.001573,
        "meta_inclination": 98.261,
        "meta_ra_of_asc_node": 129.7686,
        "meta_arg_of_pericenter": 94.9672,
        "meta_mean_anomaly": 265.3326,
        "meta_ephemeris_type": 0,
        "meta_classification_type": "U",
        "meta_norad_cat_id": 28893,
        "meta_element_set_no": 999,
        "meta_rev_at_epoch": 7535,
        "meta_bstar": 0.00011446,
        "meta_mean_motion_dot": 5.51e-06,
        "meta_mean_motion_ddot": 0,
        "tle_line1": "1 28893U 05043D   25361.17198899  .00000551  00000+0  11446-3 0  9990",
        "tle_line2": "2 28893  98.2610 129.7686 0015730  94.9672 265.3326 14.63977883 75353"
      },
      "geometry": {
        "type": "Point",
        "coordinates": [
          -45.93598851943586,
          25.60321450934005
        ]
      }
    },
    {
      "type": "Feature",
      "properties": {
        "norad_id": 29079,
        "name": "EROS B",
        "group": "resource",
        "lat": 51.33267842025596,
        "lon": 109.52525069974894,
        "alt_km": 345.373241929512,
        "timestamp": "2025-12-27T11:23:19.533884+00:00",
        "meta_object_name": "EROS B",
        "meta_object_id": "2006-014A",
        "meta_epoch": "2025-12-27T03:32:10.639968",
        "meta_mean_motion": 15.73193387,
        "meta_eccentricity": 0.0004948,
        "meta_inclination": 97.3446,
        "meta_ra_of_asc_node": 118.4562,
        "meta_arg_of_pericenter": 312.0776,
        "meta_mean_anomaly": 48.0067,
        "meta_ephemeris_type": 0,
        "meta_classification_type": "U",
        "meta_norad_cat_id": 29079,
        "meta_element_set_no": 999,
        "meta_rev_at_epoch": 9306,
        "meta_bstar": 0.0015876,
        "meta_mean_motion_dot": 0.00223156,
        "meta_mean_motion_ddot": 0,
        "tle_line1": "1 29079U 06014A   25361.14734537  .00223156  00000+0  15876-2 0  9996",
        "tle_line2": "2 29079  97.3446 118.4562 0004948 312.0776  48.0067 15.73193387 93060"
      },
      "geometry": {
        "type": "Point",
        "coordinates": [
          109.52525069974894,
          51.33267842025596
        ]
      }
    },
    {
      "type": "Feature",
      "properties": {
        "norad_id": 29228,
        "name": "RESURS-DK 1",
        "group": "resource",
        "lat": 38.06859586657901,
        "lon": -132.87962242813953,
        "alt_km": 527.3627114677647,
        "timestamp": "2025-12-27T11:23:19.533895+00:00",
        "meta_object_name": "RESURS-DK 1",
        "meta_object_id": "2006-021A",
        "meta_epoch": "2025-12-27T04:25:34.250016",
        "meta_mean_motion": 15.12243313,
        "meta_eccentricity": 0.0006978,
        "meta_inclination": 69.9336,
        "meta_ra_of_asc_node": 64.506,
        "meta_arg_of_pericenter": 246.2151,
        "meta_mean_anomaly": 113.8283,
        "meta_ephemeris_type": 0,
        "meta_classification_type": "U",
        "meta_norad_cat_id": 29228,
        "meta_element_set_no": 999,
        "meta_rev_at_epoch": 7656,
        "meta_bstar": 0.00020217,
        "meta_mean_motion_dot": 3.398e-05,
        "meta_mean_motion_ddot": 0,
        "tle_line1": "1 29228U 06021A   25361.18442419  .00003398  00000+0  20217-3 0  9999",
        "tle_line2": "2 29228  69.9336  64.5060 0006978 246.2151 113.8283 15.12243313 76568"
      },
      "geometry": {
        "type": "Point",
        "coordinates": [
          -132.87962242813953,
          38.06859586657901
        ]
      }
    }
  ]
}